{"type": "FeatureCollection", "features": [ {"type": "Feature", "properties": {"norad_id": 66809, "name": "STARLINK-35979", "group": "last-30-days", "lat": -19.267083732030457, "lon": 16.346436335351648, "alt_km": 416.4329232635064, "timestamp": "2025-12-25T16:53:13.372680+00:00", "meta": {"OBJECT_NAME": "STARLINK-35979", "OBJECT_ID": "2025-278U", "EPOCH": "2025-12-25T08:00:01.000224", "MEAN_MOTION": 15.50513271, "ECCENTRICITY": 0.00019101, "INCLINATION": 43.0003, "RA_OF_ASC_NODE": 176.4815, "ARG_OF_PERICENTER": 272.3873, "MEAN_ANOMALY": 27.1326, "EPHEMERIS_TYPE": 0, "CLASSIFICATION_TYPE": "U", "NORAD_CAT_ID": 66809, "ELEMENT_SET_NO": 999, "REV_AT_EPOCH": 498, "BSTAR": 0.001198074, "MEAN_MOTION_DOT": 0.00070414, "MEAN_MOTION_DDOT": 0}, "tle": {"line1": "1 66809U 25278U   25359.33334491  .00070414  00000+0  11981-2 0  9994", "line2": "2 66809  43.0003 176.4815 0001910 272.3873  27.1326 15.50513271  4988"}}, "geometry": {"type": "Point", "coordinates": [16.346436335351648, -19.267083732030457]}}, {"type": "Feature", "properties": {"norad_id": 66810, "name": "STARLINK-36046", "group": "last-30-days", "lat": -16.824928608820972, "lon": 13.26282199079455, "alt_km": 416.2641359995805, "timestamp": "2025-12-25T16:53:13.372690+00:00", "meta": {"OBJECT_NAME": "STARLINK-36046", "OBJECT_ID": "2025-278V", "EPOCH": "2025-12-25T08:00:01.000224", "MEAN_MOTION": 15.50497648, "ECCENTRICITY": 0.0001502, "INCLINATION": 43.0004, "RA_OF_ASC_NODE": 176.4935, "ARG_OF_PERICENTER": 263.7137, "MEAN_ANOMALY": 31.9889, "EPHEMERIS_TYPE": 0, "CLASSIFICATION_TYPE": "U", "NORAD_CAT_ID": 66810, "ELEMENT_SET_NO": 999, "REV_AT_EPOCH": 475, "BSTAR": 0.00142601, "MEAN_MOTION_DOT": 0.00083974, "MEAN_MOTION_DDOT": 0}, "tle": {"line1": "1 66810U 25278V   25359.33334491  .00083974  00000+0  14260-2 0  9994", "line2": "2 66810  43.0004 176.4935 0001502 263.7137  31.9889 15.50497648  4759"}}, "geometry": {"type": "Point", "coordinates": [13.26282199079455, -16.824928608820972]}}, {"type": "Feature", "properties": {"norad_id": 66811, "name": "STARLINK-36045", "group": "last-30-days", "lat": -18.050502791465075, "lon": 14.791985440038074, "alt_km": 416.3408152786569, "timestamp": "2025-12-25T16:53:13.372700+00:00", "meta": {"OBJECT_NAME": "STARLINK-36045", "OBJECT_ID": "2025-278W", "EPOCH": "2025-12-25T08:00:01.000224", "MEAN_MOTION": 15.50511987, "ECCENTRICITY": 0.00016513, "INCLINATION": 43.0003, "RA_OF_ASC_NODE": 176.4877, "ARG_OF_PERICENTER": 267.6562, "MEAN_ANOMALY": 29.9442, "EPHEMERIS_TYPE": 0, "CLASSIFICATION_TYPE": "U", "NORAD_CAT_ID": 66811, "ELEMENT_SET_NO": 999, "REV_AT_EPOCH": 498, "BSTAR": 0.0012716751, "MEAN_MOTION_DOT": 0.00074799, "MEAN_MOTION_DDOT": 0}, "tle": {"line1": "1 66811U 25278W   25359.33334491  .00074799  00000+0  12717-2 0  9995", "line2": "2 66811  43.0003 176.4877 0001651 267.6562  29.9442 15.50511987  4984"}}, "geometry": {"type": "Point", "coordinates": [14.791985440038074, -18.050502791465075]}}, {"type": "Feature", "properties": {"norad_id": 66812, "name": "STARLINK-36054", "group": "last-30-days", "lat": -20.487214785510428, "lon": 17.94914653874207, "alt_km": 416.446655572513, "timestamp": "2025-12-25T16:53:13.372710+00:00", "meta": {"OBJECT_NAME": "STARLINK-36054", "OBJECT_ID": "2025-278X", "EPOCH": "2025-12-25T08:00:01.000224", "MEAN_MOTION": 15.50601102, "ECCENTRICITY": 0.00015802, "INCLINATION": 43.0002, "RA_OF_ASC_NODE": 176.4777, "ARG_OF_PERICENTER": 258.6336, "MEAN_ANOMALY": 42.7794, "EPHEMERIS_TYPE": 0, "CLASSIFICATION_TYPE": "U", "NORAD_CAT_ID": 66812, "ELEMENT_SET_NO": 999, "REV_AT_EPOCH": 498, "BSTAR": -0.0013259075, "MEAN_MOTION_DOT": -0.00077423, "MEAN_MOTION_DDOT": 0}, "tle": {"line1": "1 66812U 25278X   25359.33334491 -.00077423  00000+0 -13259-2 0  9997", "line2": "2 66812  43.0002 176.4777 0001580 258.6336  42.7794 15.50601102  4985"}}, "geometry": {"type": "Point", "coordinates": [17.94914653874207, -20.487214785510428]}}, {"type": "Feature", "properties": {"norad_id": 66813, "name": "STARLINK-36042", "group": "last-30-days", "lat": -21.66453482854822, "lon": 19.537614743265276, "alt_km": 416.6352247894429, "timestamp": "2025-12-25T16:53:13.372721+00:00", "meta": {"OBJECT_NAME": "STARLINK-36042", "OBJECT_ID": "2025-278Y", "EPOCH": "2025-12-25T08:00:01.000224", "MEAN_MOTION": 15.50510908, "ECCENTRICITY": 0.00014501, "INCLINATION": 43.0003, "RA_OF_ASC_NODE": 176.4722, "ARG_OF_PERICENTER": 267.3682, "MEAN_ANOMALY": 35.9896, "EPHEMERIS_TYPE": 0, "CLASSIFICATION_TYPE": "U", "NORAD_CAT_ID": 66813, "ELEMENT_SET_NO": 999, "REV_AT_EPOCH": 498, "BSTAR": 0.0012253562, "MEAN_MOTION_DOT": 0.00072033, "MEAN_MOTION_DDOT": 0}, "tle": {"line1": "1 66813U 25278Y   25359.33334491  .00072033  00000+0  12254-2 0  9992", "line2": "2 66813  43.0003 176.4722 0001450 267.3682  35.9896 15.50510908  4984"}}, "geometry": {"type": "Point", "coordinates": [19.537614743265276, -21.66453482854822]}}, {"type": "Feature", "properties": {"norad_id": 66814, "name": "STARLINK-35984", "group": "last-30-days", "lat": -28.422567709318432, "lon": 29.782729463763104, "alt_km": 417.01734483032305, "timestamp": "2025-12-25T16:53:13.372731+00:00", "meta": {"OBJECT_NAME": "STARLINK-35984", "OBJECT_ID": "2025-278Z", "EPOCH": "2025-12-25T08:00:01.000224", "MEAN_MOTION": 15.50508327, "ECCENTRICITY": 0.00014428, "INCLINATION": 43.0002, "RA_OF_ASC_NODE": 176.4432, "ARG_OF_PERICENTER": 269.604, "MEAN_ANOMALY": 45.2574, "EPHEMERIS_TYPE": 0, "CLASSIFICATION_TYPE": "U", "NORAD_CAT_ID": 66814, "ELEMENT_SET_NO": 999, "REV_AT_EPOCH": 507, "BSTAR": 0.0013049527, "MEAN_MOTION_DOT": 0.00076774, "MEAN_MOTION_DDOT": 0}, "tle": {"line1": "1 66814U 25278Z   25359.33334491  .00076774  00000+0  13050-2 0  9994", "line2": "2 66814  43.0002 176.4432 0001442 269.6040  45.2574 15.50508327  5076"}}, "geometry": {"type": "Point", "coordinates": [29.782729463763104, -28.422567709318432]}}, {"type": "Feature", "properties": {"norad_id": 66815, "name": "STARLINK-35985", "group": "last-30-days", "lat": -27.34629100198152, "lon": 27.99117150933675, "alt_km": 416.90578317060226, "timestamp": "2025-12-25T16:53:13.372741+00:00", "meta": {"OBJECT_NAME": "STARLINK-35985", "OBJECT_ID": "2025-278AA", "EPOCH": "2025-12-25T08:00:01.000224", "MEAN_MOTION": 15.50507876, "ECCENTRICITY": 0.000152, "INCLINATION": 43.0003, "RA_OF_ASC_NODE": 176.4481, "ARG_OF_PERICENTER": 267.538, "MEAN_ANOMALY": 45.4041, "EPHEMERIS_TYPE": 0, "CLASSIFICATION_TYPE": "U", "NORAD_CAT_ID": 66815, "ELEMENT_SET_NO": 999, "REV_AT_EPOCH": 507, "BSTAR": 0.0013178476, "MEAN_MOTION_DOT": 0.00077543, "MEAN_MOTION_DDOT": 0}, "tle": {"line1": "1 66815U 25278AA  25359.33334491  .00077543  00000+0  13178-2 0  9991", "line2": "2 66815  43.0003 176.4481 0001520 267.5380  45.4041 15.50507876  5072"}}, "geometry": {"type": "Point", "coordinates": [27.99117150933675, -27.34629100198152]}}, {"type": "Feature", "properties": {"norad_id": 66816, "name": "STARLINK-36098", "group": "last-30-days", "lat": -22.83587583866336, "lon": 21.16622624427737, "alt_km": 416.6335086358422, "timestamp": "2025-12-25T16:53:13.372754+00:00", "meta": {"OBJECT_NAME": "STARLINK-36098", "OBJECT_ID": "2025-278AB", "EPOCH": "2025-12-25T08:00:01.000224", "MEAN_MOTION": 15.5051758, "ECCENTRICITY": 0.00015732, "INCLINATION": 43.0003, "RA_OF_ASC_NODE": 176.4674, "ARG_OF_PERICENTER": 266.6615, "MEAN_ANOMALY": 38.6039, "EPHEMERIS_TYPE": 0, "CLASSIFICATION_TYPE": "U", "NORAD_CAT_ID": 66816, "ELEMENT_SET_NO": 999, "REV_AT_EPOCH": 482, "BSTAR": 0.0011616464, "MEAN_MOTION_DOT": 0.00068253, "MEAN_MOTION_DDOT": 0}, "tle": {"line1": "1 66816U 25278AB  25359.33334491  .00068253  00000+0  11616-2 0  9995", "line2": "2 66816  43.0003 176.4674 0001573 266.6615  38.6039 15.50517580  4822"}}, "geometry": {"type": "Point", "coordinates": [21.16622624427737, -22.83587583866336]}}, {"type": "Feature", "properties": {"norad_id": 66817, "name": "STARLINK-35995", "group": "last-30-days", "lat": -25.131795330074898, "lon": 24.51744025598908, "alt_km": 416.7592525940372, "timestamp": "2025-12-25T16:53:13.372765+00:00", "meta": {"OBJECT_NAME": "STARLINK-35995", "OBJECT_ID": "2025-278AC", "EPOCH": "2025-12-25T08:00:01.000224", "MEAN_MOTION": 15.50513268, "ECCENTRICITY": 0.0001537, "INCLINATION": 43.0003, "RA_OF_ASC_NODE": 176.4575, "ARG_OF_PERICENTER": 265.3658, "MEAN_ANOMALY": 43.7401, "EPHEMERIS_TYPE": 0, "CLASSIFICATION_TYPE": "U", "NORAD_CAT_ID": 66817, "ELEMENT_SET_NO": 999, "REV_AT_EPOCH": 498, "BSTAR": 0.0012042196, "MEAN_MOTION_DOT": 0.00070779, "MEAN_MOTION_DDOT": 0}, "tle": {"line1": "1 66817U 25278AC  25359.33334491  .00070779  00000+0  12042-2 0  9996", "line2": "2 66817  43.0003 176.4575 0001537 265.3658  43.7401 15.50513268  4982"}}, "geometry": {"type": "Point", "coordinates": [24.51744025598908, -25.131795330074898]}}, {"type": "Feature", "properties": {"norad_id": 66818, "name": "STARLINK-35994", "group": "last-30-days", "lat": -21.659914748568536, "lon": 19.530456637536115, "alt_km": 425.46958413880475, "timestamp": "2025-12-25T16:53:13.372776+00:00", "meta": {"OBJECT_NAME": "STARLINK-35994", "OBJECT_ID": "2025-278AD", "EPOCH": "2025-12-25T08:00:01.000224", "MEAN_MOTION": 15.49147696, "ECCENTRICITY": 0.00017754, "INCLINATION": 43.0004, "RA_OF_ASC_NODE": 176.4642, "ARG_OF_PERICENTER": 262.5892, "MEAN_ANOMALY": 43.7465, "EPHEMERIS_TYPE": 0, "CLASSIFICATION_TYPE": "U", "NORAD_CAT_ID": 66818, "ELEMENT_SET_NO": 999, "REV_AT_EPOCH": 498, "BSTAR": -0.041600219, "MEAN_MOTION_DOT": -0.02063765, "MEAN_MOTION_DDOT": 0}, "tle": {"line1": "1 66818U 25278AD  25359.33334491 -.02063765  00000+0 -41600-1 0  9999", "line2": "2 66818  43.0004 176.4642 0001775 262.5892  43.7465 15.49147696  4988"}}, "geometry": {"type": "Point", "coordinates": [19.530456637536115, -21.659914748568536]}}]}